EXO-0                   
1 59175U 23174DK  26068.71046781  .00011582  00000+0  36716-3 0  9992
2 59175  97.3864 148.9039 0009878 157.1125 203.0559 15.32821991129797
STARLINK-33784          
1 63453U 25069W   26068.44555718  .00033766  00000+0  11464-2 0  9996
2 63453  53.1582 143.8705 0000792 130.5046 229.6024 15.30217807 53368
