[{"OBJECT_NAME":"EXO-0","OBJECT_ID":"2023-174DK","EPOCH":"2026-03-09T17:03:04.419648","MEAN_MOTION":15.32821991,"ECCENTRICITY":0.00098779,"INCLINATION":97.3864,"RA_OF_ASC_NODE":148.9039,"ARG_OF_PERICENTER":157.1125,"MEAN_ANOMALY":203.0559,"EPHEMERIS_TYPE":0,"CLASSIFICATION_TYPE":"U","NORAD_CAT_ID":59175,"ELEMENT_SET_NO":999,"REV_AT_EPOCH":12979,"BSTAR":0.00036716083,"MEAN_MOTION_DOT":0.00011582,"MEAN_MOTION_DDOT":0},{"OBJECT_NAME":"STARLINK-33784","OBJECT_ID":"2025-069W","EPOCH":"2026-03-09T10:41:36.140352","MEAN_MOTION":15.30217807,"ECCENTRICITY":7.921e-5,"INCLINATION":53.1582,"RA_OF_ASC_NODE":143.8705,"ARG_OF_PERICENTER":130.5046,"MEAN_ANOMALY":229.6024,"EPHEMERIS_TYPE":0,"CLASSIFICATION_TYPE":"U","NORAD_CAT_ID":63453,"ELEMENT_SET_NO":999,"REV_AT_EPOCH":5336,"BSTAR":0.0011463826,"MEAN_MOTION_DOT":0.00033766,"MEAN_MOTION_DDOT":0}]
